CompanyName,Phone,Email,Website,Street,City,Province,Postal Code,Country,Badges,CitrixRelationship
"Computer Sciences Canada, Inc.","1 450 6478008","","www.csc.com","555 Legget Dr Tower A Suite 900","Kanata","ON","K2K 2X3","CA","System Integrator",
"IBM","1 204 49464900","krruoho@us.ibm.com","www.ibm.com","400 Ellice Avenue","Winnipeg","MB","R3B 3M3","CA","System Integrator",
"Bell Canada","1 905 56143557","louis.paquin@bell.ca","http://www.bell.ca","930 D'Aiguillon Rue 5E Etage E","Quebec","QC","G1R 5M9","CA","Citrix Solution Advisor - platinum",
"Compugen Inc.","1 905 7072000","virtualone@compugen.com","http://www.compugen.com","100 Via Renzo Dr","Richmond Hill","ON","L4S 0B8","CA","Citrix Solution Advisor - platinum,Citrix Service Provider",
"DLS Technology Corporation","613 2498818","info@dlstech.com","www.dlstech.com","1376 Bank Sreet Suite 306","Ottawa","ON","K1H 7Y3","CA","Citrix Solution Advisor - platinum,Citrix Service Provider",
"IT Weapons Inc","905 4941040","info@itweapons.com","http://www.itweapons.com","7965 Goreway Drive Unit 1","Brampton","ON","L6T 5T5","CA","Citrix Solution Advisor - platinum,Citrix Service Provider",
"Long View Systems","1 403 5156900","partnerinfo@lvs1.com","www.lvs1.com","3100, 255 5th Avenue SW","Calgary","AB","T2P 3G6","CA","Citrix Solution Advisor - platinum,Citrix Service Provider",
"SoftChoice LP","416 5889000","candice.garner@softchoice.com","www.softchoice.com","173 Dufferin Street Suite 200","Toronto","ON","M6K 3H7","CA","Citrix Solution Advisor - gold, platinum",
"Acrodex Inc","1 780 4264444","alaa.sabbagh@acrodex.com","www.acrodex.com","11420 170 St NW","Edmonton","AB","T5S 1L7","CA","Citrix Solution Advisor - gold",
"CloudOps","1 888 7968364","sales@cloudops.com","http://www.cloudops.com","420 Guy Rue","Montreal","QC","H3J 1S6","CA","Citrix Solution Advisor - gold,Citrix Service Provider",
"CompuCom Canada Co.","1 519 96736618","ron.henager@compucom.com","http://www.compucom.com/","1830 Matheson Boulevard Unit 1","Mississauga","ON","L4W 0B3","CA","Citrix Solution Advisor - gold",
"Gibraltar Solutions Inc","1 905 8589072","lle@gibraltarsolutions.com","http://www.gibraltarsolutions.com","6990 Creditview Rd Suite 4","Mississauga","ON","L5N 8R9","CA","Citrix Solution Advisor - gold,Citrix Service Provider",
"Malicis consultation","1 514 8491100","eazemard@malicis.com","http://www.malicis.com","6465 Durocher Av Suite 401","Outremont","QC","H2V 3Z1","CA","Citrix Solution Advisor - gold",
"Metafore Technologies Inc.","1 905 53628300","software@metafore.ca","http://www.metafore.ca","9393 Louis-H.-Lafontaine Boul","Anjou","QC","H1J 1Y8","CA","Citrix Solution Advisor - gold",
"ProContact informatique","1 418 8711622","robert.breault@procontact.ca","http://www.procontact.ca","1000 Saint-Jean-Baptiste Av Suite 111","Quebec","QC","G2E 5G5","CA","Citrix Solution Advisor - gold",
"Third Octet Inc.","647 7280610","mtoste@thirdoctet.com","http://www.thirdoctet.com","6175 Highway #7 Unit 2","Vaughan","ON","L4H 0P6","CA","Citrix Solution Advisor - gold,Citrix Service Provider",
"3GL Technology Solutions","1 780 4992888","gerd@3gl.ca","http://www.3gl.ca","831 Proctor Wynd","Edmonton","AB","T5T 6J3","CA","Citrix Solution Advisor - silver,Citrix Service Provider",
"A-Power Computer Ltd.","1 604 2735667","business@a-power.com","http://www.a-power.com","1038 2560 Shell Rd","Richmond","BC","V6X 0B8","CA","Citrix Solution Advisor - silver",
"A.D. Microcircuit Computers","1 604 2762012","kimson@admicro.net","http://www.admicro.net","17782 River Rd Suite 124","Richmond","BC","V6X 1Z7","CA","Citrix Solution Advisor - silver",
"ABM Integrated Solution","1 902 4689140","kmacdonald@abmis.ca","www.abmis.ca","98 Williams Ave","Dartmouth","NS","B3B 0A1","CA","Citrix Solution Advisor - silver",
"Accara IT Services","1 613 36349339","bfleming@accara.ca","www.accara.ca","443 Tanglewood Dr","Kingston","ON","K7M 7V6","CA","Citrix Solution Advisor - silver",
"ACCEO Solutions Inc","800 3617098","thierry.bonte@gfisolutions.com","www.gfisolutions.com","75 Queen Rue Suite 6100","Montreal","QC","H3C 2N6","CA","Citrix Solution Advisor - silver",
"Access Info-Tech","1 514 2886000","mbernard@groupeaccess.ca","http://www.access-it.ca/","1255 University Rue Suite 100","Montreal","QC","H3B 3A9","CA","Citrix Solution Advisor - silver",
"Accessweb Corporation","416 4164166501854","info@accessweb.ca","","50 Riverside Dr","Pefferlaw","ON","L0E 1N0","CA","Citrix Solution Advisor - silver",
"ACESI Canada Inc","1 514 3126318","ecucchietti@ace-si.com","http://www.ace-si.com","4020, Rue Saint Ambroise Suite 269","Montreal","QC","H4C 2C7","CA","Citrix Solution Advisor - silver",
"AD Micro Technology Inc","1 604 2762012","kimson@admicro.net","http://www.admicrocircuit.com","11782 River Rd Suite 124","Richmond","BC","V6X 1Z7","CA","Citrix Solution Advisor - silver",
"Agfa HealthCare Corporation","001 201 373","christina.nota@agfa.com","http://www.agfahealthcare.com/usa/en/main/","77 Belfield Rd.","Toronto","ON","M9W 1G6","CA","Citrix Solution Advisor - silver",
"Agora Global Networks Inc.","1 519 2522626","citrix@agoraglobal.com","http://www.agoraglobal.com","2996 Deziel Dr Suite C","Windsor","ON","N8W 5H8","CA","Citrix Solution Advisor - silver",
"AMA Inc.","1 905 58263922","sales@ama.ca","www.ama.ca","6699 Campobello Rd","Mississauga","ON","L5N 2L7","CA","Citrix Solution Advisor - silver",
"Amador Business Computers","1 780 04832727","kmouallem@amadorgroup.com","http://amador.ca/","17509 107 Ave NW","Edmonton","AB","T5S 1E5","CA","Citrix Solution Advisor - silver",
"Anchor Managed Solutions Ltd.","1 306 2420095","support@anchorms.com","http://www.anchorms.com","103-1359 Fletcher Road","Saskatoon","SK","S7M 5H5","CA","Citrix Solution Advisor - silver",
"AndroÃ¯de","819 379 2866","ventes@androide.com","http://www.androide.com","6215, rue Corbeil","Trois-Rivieres","QC","G8Z 4P8","CA","Citrix Solution Advisor - silver",
"Animate Inc","001 416 5352516","licensing@animate.com","http://www.animate.com/","133 Richmond St W Suite 600","Toronto","ON","M5H 2L3","CA","Citrix Solution Advisor - silver",
"Applied Computer Solutions Inc","1 519 9444300","jpolicella@acs.on.ca","www.acs.on.ca","3020 St Etienne Blvd","Windsor","ON","N8W 5E6","CA","Citrix Solution Advisor - silver",
"AROLINC CORPORATION","001 888 2360001","info@arolinc.com","http://www.arolinc.com","465 Yonge St PO Box 73067 Wood St","Toronto","ON","M4Y 2W5","CA","Citrix Solution Advisor - silver",
"Ashlin Technology Solutions Inc.","1 416 2563096","sales@ashlin.ca","http://citrix.ashlin.ca","528 Cranbrooke Ave","Toronto","ON","M5M 1N8","CA","Citrix Solution Advisor - silver",
"Atcomtel Communications Inc.","1 416 6132779","info@atcomtel.com","http://www.atcomtel.com","71 Rosedale Ave. West Unit A10","Brampton","ON","L4L 8K5","CA","Citrix Solution Advisor - silver",
"Atum Corporation","1 416 4108444","jwilliams@atum.com","http://www.atum.com","4950 Yonge St Suite 514","Toronto","ON","M2N 6K1","CA","Citrix Solution Advisor - silver",
"Aura Advanced Technologies Inc","1 403 2696123","kiml@auraadvanced.com","www.auraadvanced.com","1121 6 Ave SW #1301- 1121-6 Ave SW","Calgary","AB","T2P 5J4","CA","Citrix Solution Advisor - silver,Citrix Service Provider",
"Avaropoint","1 866 8290650","info@avaropoint.com","http://www.avaropoint.com","112 Branlyn Cres","Brantford","ON","N3P 1Z9","CA","Citrix Solution Advisor - silver",
"Avema Corporation","001 416 3645711","rcole@avema.com","http://www.avema.com","266 King St W Unit 400","Toronto","ON","M5V 1H8","CA","Citrix Solution Advisor - silver",
"Axanto Group Inc.","001 905 5643100","info@axantogroup.com","http://www.axantogroup.com","6705 Tomken Rd Suite 221","Mississauga","ON","L5T 2J6","CA","Citrix Solution Advisor - silver",
"Baez-Group","001 416 6457422","info@baez-group.com","http://www.baez-group.com","330 Bay St","Toronto","ON","M5H 2S8","CA","Citrix Solution Advisor - silver",
"Barricade IT","001 905 6647587","barricadeit@gmail.com","http://barricadeit.com","28 King St W B16-28 King Street West","Stoney Creek","ON","L8G 1H4","CA","Citrix Solution Advisor - silver",
"Bay Street IT Solutions","416 6377526","info@baystreet-it.ca","http://www.baystreet-it.ca","4 King St W Suite 1310","Toronto","ON","M5H 1B6","CA","Citrix Solution Advisor - silver",
"Beauvel-Micronsult, Inc.","1 514 8401377","francoisb@beauvelmicro.com","www.beauvelmicro.com","204 du Saint-Sacrement Rue Suite 201","Montreal","QC","H2Y 1W8","CA","Citrix Solution Advisor - silver",
"Bellefleur Informatiques","1 450 4333010","sylvain2012@videotron.ca","http://www.bellefleurinformatiques","8 DuBois Rue","Sainte-Therese","QC","J7E 1J7","CA","Citrix Solution Advisor - silver",
"Bercell Integrated Technologies","1 705 52687064","sacha@bercell.com","www.bercell.com","293 Lois Cres","Timmins","ON","P4P 1G6","CA","Citrix Solution Advisor - silver",
"Binatech Software Inc.","1 905 55277007","mike.haworth@binatech.com","www.binatech.com","1 Hughson St N Suite 203","Hamilton","ON","L8R 3L5","CA","Citrix Solution Advisor - silver",
"Blair Technology Solutions","1 905 4745922","jjblair@blairtechnology.com","http://www.blairtechnology.com","306 Town Centre Blvd. Suite 201","Markham","ON","L3R 0Y6","CA","Citrix Solution Advisor - silver",
"BMK Virtual IT Solutions Ltd","1 778 2311489","citrix@bmkvits.ca","http://www.bmkvits.ca","100 Royal Pk Suite 200","West Vancouver","BC","V7T 1A2","CA","Citrix Solution Advisor - silver",
"Boardwalk Communications","1 250 3824880","sales@bdwalk.com","http://www.bdwalk.com","4464 Markham St Suite 2304","Victoria","BC","V8Z 7X8","CA","Citrix Solution Advisor - silver",
"Britec Computer Systems Ltd.","1 403 37207010","roger@britec.com","www.britec.com","1400 Kensington Rd NW Suite 204","Calgary","AB","T2N 3P9","CA","Citrix Solution Advisor - silver",
"BTC Systems Co.","604 765 8549","sales@btcsystems.ca","http://bycststems.ca","68 A Ave Suite 14835","Surrey","BC","V3S 6B1","CA","Citrix Solution Advisor - silver",
"Bulletproof InfoTech Inc.","1 403 3401011","jeff.anderson@bulletproofit.ca","www.bulletproofIT.ca","7711 50 Ave Suite 11","Red Deer","AB","T4P 1M7","CA","Citrix Solution Advisor - silver",
"Business Evolution Consulting Inc.","1 587 2871790","inquiry@dreampractice.ca","http://dreampractice.ca","160 Quarry Park Blvd SE Suite 300","Calgary","AB","T2C 3G3","CA","Citrix Solution Advisor - silver",
"Byte-Tech Computing Services Inc.","001 403 2772882","sales@bytetech.ca","http://www.bytetech.ca","3200 14 Ave NE Suite 8","Calgary","AB","T2A 6J4","CA","Citrix Solution Advisor - silver",
"BZ Inc","418 4186882727","francois.bergeron@bzinc.ca","www.bzinc.ca","1 Re Avenur Suite 5345","Quebec","QC","G1H 2V5","CA","Citrix Solution Advisor - silver",
"C & I Technologies Inc.","011 519 7631193","inam@citechnologies.com","http://citechnologies.com","265 Edinburgh Rd S","Guelph","ON","N1G 2J6","CA","Citrix Solution Advisor - silver",
"C4GS Corporation","001 416 6133463","info@c4gs.ca","http://www.c4gs.ca","54-5255 Lakeshore Rd","Burlington","ON","L7L 5X9","CA","Citrix Solution Advisor - silver",
"Canada Compufixonsite Inc","780 451 4874","gord@compufixcan.com","http://www.compufixcan.com","10603-172St","Edmonton","AB","T5S 1P1","CA","Citrix Solution Advisor - silver",
"Canadian Health Systems.","1 613 7273372","info@chsinc.ca","http://chsinc.ca","1902 Robertson Rd Suite 204","Ottawa","ON","K2H 5B8","CA","Citrix Solution Advisor - silver,Citrix Service Provider",
"Caretek IT Solutions","416 6309555","josephs@caretek.ca","http://www.caretek.ca","1900 Clark Blvd Suite 8","Brampton","ON","L6T 0E9","CA","Citrix Solution Advisor - silver",
"Celero Solutions","306 566 1251","softwareinformation@celero.ca","http://www.celero.ca","2055 Albert St","Regina","SK","S4P 3G8","CA","Citrix Solution Advisor - silver,Citrix Service Provider",
"Central Technology Services Corporation","905 8299480","christina@ecentral.org","http://www.ecentral.org","1400 Cornwall Rd, Unit 5","Oakville","ON","L6J 7W5","CA","Citrix Solution Advisor - silver",
"Ceritar Technologies Inc","579 721 1354","cloud@ceritar.com","http://Www.ceritar.com","2255 Fernand-Lafontaine Boul Suite 300","Longueuil","QC","J4G 2R8","CA","Citrix Solution Advisor - silver",
"CGI","001 514 4153000","info@cgi.com","http://www.cgi.com","1350 Rene-Levesque Boul W","Montreal","QC","H3G 1T4","CA","Citrix Solution Advisor - silver",
"Charter Telecom Inc","1 778 4102503","kelly@charter.ca","http://www.charter.ca","1979 Impala Rd","Victoria","BC","V9C 4C1","CA","Citrix Solution Advisor - silver",
"CloudSilicon","1 888 2665334","support@cloudsilicon.com","http://www.cloudsilicon.com","6200 Dixie Rd Suite 221","Mississauga","ON","L5T 2E1","CA","Citrix Solution Advisor - silver",
"Coast Salish Technologies","001 604 4248291","info@coastsalishtech.ca","http://coastsalishtech.ca","23684 Gabriel Lane","Langley","BC","V1M 2S4","CA","Citrix Solution Advisor - silver",
"Cobi Informatique Inc.","1 450 2662420","vente@cobi.ca","http://www.cobi.ca","127 Principale Rue Suite 103","Cowansville","QC","J2K 1J3","CA","Citrix Solution Advisor - silver",
"Cogeco Data Services","1 416 5993282","dtempleton@quiettouch.com","www.quiettouch.com","145 King St W","Toronto","ON","M5H 1J8","CA","Citrix Solution Advisor - silver",
"Commerx","1 905 5429400","ian.vaudry@commerx.ca","www.commerx.ca","2880 Argentia Rd","Mississauga","ON","L5N 7X8","CA","Citrix Solution Advisor - silver",
"ComplyTec Inc.","1 416 4105599","sales@complytec.com","http://www.complytec.com","1443 Hurontario Street Suite 100","Mississauaga","ON","L5G 3H5","CA","Citrix Solution Advisor - silver",
"Compu-SOLVE Technologies Inc.","1 705 5286000","rob@csolve.net","www.csolve.net","361 King Street","Midland","ON","L4R 3M7","CA","Citrix Solution Advisor - silver",
"Compu-SOLVE Technologies Inc.","705 528 6000","rob@csolve.net","http://www.csolve.net","361 King St","Midland","ON","L4R 3M7","CA","Citrix Solution Advisor - silver",
"COMPUNET INFOTECH INC.","001 604 9868170","info@compunet.ca","http://compunet.ca","105 15th St E Suite 105","North Vancouver","BC","V7L 2P7","CA","Citrix Solution Advisor - silver",
"Concept Computer Corporation","1 905 5671829","rgoldson@conceptcomputer.com","www.conceptcomputer.com","2176 Torquay Mews","Mississauga","ON","L5N 2M6","CA","Citrix Solution Advisor - silver,Citrix Service Provider",
"Constant C Technology Group","1 204 9922231","sales@constantc.com","http://www.constantc.com","294 Portage Ave Suite 816","Winnipeg","MB","R3C 0B9","CA","Citrix Solution Advisor - silver,Citrix Service Provider",
"Contego Tech Solutions","001 403 7754580","sales@contegotech.ca","http://www.contegotech.ca","706 7 Ave SW Suite 750","Calgary","AB","T2P 0Z1","CA","Citrix Solution Advisor - silver",
"Core Information Technologies","001 604 6324110","kim.hikichi@coreit.ca","http://www.coreit.ca","2410 Charles St","Vancouver","BC","V5R 6C4","CA","Citrix Solution Advisor - silver",
"Cortex GÃ©nie Humain","514 788 7747","info@cortexgh.com","http://cortexgh.com","460 Sainte-Catherine Rue O Bureau 307","Montreal","QC","H3B 1A7","CA","Citrix Solution Advisor - silver",
"CPG Systems","1 604 3368133","ask.us@cpgsystems.ca","http://cpgsystems.ca","301 2818 Main St","Vancouver","BC","V5T 0C1","CA","Citrix Solution Advisor - silver",
"Cpu Service inc.","1 418 6816974","p.levesque@cpu.qc.ca","www.cpu.qc.ca","2323 du Versant-Nord Boul Suite 100","Quebec","QC","G1N 4P4","CA","Citrix Solution Advisor - silver",
"Crystalsearch Consulting","001 403 4733105","oagbi@crystalsearchconsulting.com","http://crystalsearchconsulting.com","62 Copperfield Cres SE","Calgary","AB","T2Z 4L6","CA","Citrix Solution Advisor - silver",
"Cybertech Informatique & TÃ©lÃ©communications Inc.","1 418 6923491","contact@cit-direct.com","http://www.cit-direct.com/","St-Roch Rue Suite 330 330","Quebec","QC","G1K 6S2","CA","Citrix Solution Advisor - silver",
"Cybertual Systems Inc.","001 647 9986559","info@cybertual.com","http://www.cybertual.com","7111 Syntex Drive, 3rd Floor","Mississauga","ON","L5N 8C3","CA","Citrix Solution Advisor - silver",
"Dacom Technical Services Inc.","1 905 57521027","dave@dacom.ca","www.dacom.ca","7170 Warden Ave Suite 13","Markham","ON","L3R 8B3","CA","Citrix Solution Advisor - silver",
"DANAIS Technologies","1 204 2229666","sales@danais.ca","http://www.danais.ca","421 Mulvey Avenue East","Winnipeg","MB","R3L 0R6","CA","Citrix Solution Advisor - silver",
"Data Access Technologies Inc.","001 905 8365440","info@dataaccess.ca","http://www.dataaccess.ca","17705B Leslie St Unit 8","Newmarket","ON","L3Y 3E3","CA","Citrix Solution Advisor - silver",
"Data Integrity Inc","416 638 0111","jausten@dataintegrity.ca","http://dataintegrity.ca/","810 Steeprock Dr","North York","ON","M3J 2X2","CA","Citrix Solution Advisor - silver",
"Dataworld Canada Inc","1 514 7386350","laura@dataworld.ca","www.dataworld.ca","247 Dunbar Ave.","Montreal","QC","H3P 2H4","CA","Citrix Solution Advisor - silver",
"Define Mobility","001 416 8550509","jesse.singh@definemobility.com","http://www.definemobility.com","2 Bloor Street Eastsuitesuitesui Suite 450","Toronto","ON","M4W 1A8","CA","Citrix Solution Advisor - silver,Citrix Service Provider",
"Digica Solutions","647 723 9300","george.anderson@digica.ca","http://www.digica.ca","47 Morgandale Cres","Orangeville","ON","L9W 3C6","CA","Citrix Solution Advisor - silver",
"Direct Tec Inc.","011 403 2710882","sales@directtec.ca","http://www.directtec.ca","2816 11 St NE Suite 202","Calgary","AB","T2E 7S7","CA","Citrix Solution Advisor - silver,Citrix Service Provider",
"DNS IT Consultants","1 416 8575305","shree@dnsitconsultants.com","http://www.dnsitconsultants.com","105 Bellrock Dr","Scarborough","ON","M1V 3G5","CA","Citrix Solution Advisor - silver",
"Drummond Info Plus","1 819 94780994","bvilleneuve@infoplus.ca","http://www.infoplus.ca","1240, Saint-Joseph Boul","Drummondville","QC","J2C 2E1","CA","Citrix Solution Advisor - silver",
"Drummond Informatique Ltee","1 819 5699663","mboisvert@microage-dil.ca","http://www.microage-dil.ca","740 rue Galt Ouest Suite 300","Sherbrooke","QC","J1H 1Z3","CA","Citrix Solution Advisor - silver",
"DTM Systems Corp","1 604 2576700","clm@dtm.ca","http://www.dtm.ca","2323 Boundary Rd Suite 130","Vancouver","BC","V5M 4V8","CA","Citrix Solution Advisor - silver",
"Duologik Solutions, div. of 2207523 Ontario Inc.","1 905 7094900","zoreena@duologik.com","http://www.duologik.com","100 Leek Crescent Unit 9","Richmond Hill","ON","L4B 3E6","CA","Citrix Solution Advisor - silver",
"E-Tech Computers Inc.","001 604 2731995","tlee@e-techcomputers.com","http://www.e-techcomputers.com","13700 Mayfield Pl Suite 1105","Richmond","BC","V6V 2E4","CA","Citrix Solution Advisor - silver",
"E2 Networks","1 905 2050404","support@e2networks.ca","http://www.e2networks.ca","23 Ida Jane Grove","Stouffville","ON","L4A 0S3","CA","Citrix Solution Advisor - silver",
"Eastbay I.T. Consulting Inc.","1 416 8489493","jridout@eastbay.ca","http://www.eastbay.ca","110 Spadina Ave","Toronto","ON","M5V 2K4","CA","Citrix Solution Advisor - silver",
"Edge Hosting Inc.","647 557 3433","atef@edgehosting.ca","http://www.edgehosting.ca","3601 Highway 7 Suite 400","Markham","ON","L3R 0M3","CA","Citrix Solution Advisor - silver,Citrix Service Provider",
"Edgetech Computing Inc.","1 403 2375331","abraid@edgetechcomputing.com","http://www.edgetechcomputing.com/","1117-1St SW St Suite 103","Calgary","AB","T2R 0T9","CA","Citrix Solution Advisor - silver",
"EmbeddedSoft","647 400 2102","ranko@embeddedsoft.ca","http://www.embeddedsoft.ca","153 Beecroft Rd Penthouse 108","Toronto","ON","M2N 7C5","CA","Citrix Solution Advisor - silver",
"Enterprise Management Systems Inc (EMSI)","1 902 22094456","cskinner@emsisolutions.com","www.emsisolutions.com","23 Belle St","Bedford","NS","B4B 1S8","CA","Citrix Solution Advisor - silver",
"Epic Information Solutions","1 204 4532300","info@epic.ca","www.epic.ca","167 Sherbrook St","Winnipeg","MB","R3C 2B7","CA","Citrix Solution Advisor - silver",
"ESI Technologies. INC","514 7453311","sbrunet@esitechnologies.com","http://esitechnologies.com","1550-1100 Metcalfe Street","Montreal","QC","H3A 1X6","CA","Citrix Solution Advisor - silver",
"Esyx Consulting Inc.","1 647 4943352","info@esyxconsulting.com","http://www.esyxconsulting.com","2960 Dancer Crt","Mississauga","ON","L5L 1Y4","CA","Citrix Solution Advisor - silver",
"EurOuest Inc.","514 591 8307","harold.walker@eurouest.net","http://www.EurOuest.net","19480 Elkas Boul","Kirkland","QC","H9J 3L3","CA","Citrix Solution Advisor - silver",
"eVolution Hosting Solutions Inc","888 7842322","rsalmon@officeport.ca","http://www.officeport.ca","5816 St Margarets Bay Rd","Halifax","NS","B3Z 2E4","CA","Citrix Solution Advisor - silver,Citrix Service Provider",
"Evron Computer Systems Corp.","1 905 4770444","lnoble@evron.com","http://www.evron.com","5 Denison St","Markham","ON","L3R 1B5","CA","Citrix Solution Advisor - silver",
"Excell IT Inc.","905 673 3049","sales@excellit.com","http://www.excellit.com","6300 Tomken Rd","Mississauga","ON","L5T 1N2","CA","Citrix Solution Advisor - silver,Citrix Service Provider",
"EZ Networks Inc","1 647 4785700","info@ez-net.ca","http://ez-net.ca","751 Grand Banks Dr","Waterloo","ON","N2K 4N2","CA","Citrix Solution Advisor - silver",
"F4 Solutions Inc.","1 514 3121350","dominic.fleurent@f4-solutions.com","http://www.f4-solutions.com","1255 rue University suite 1416","Montreal","QC","H3B 3X1","CA","Citrix Solution Advisor - silver",
"Fact Computers","1 306 65698112","mfritzler@factcomp.com","www.factcomp.com","2132 Broad St","Regina","SK","S4P 1Y5","CA","Citrix Solution Advisor - silver",
"FlexITy Solutions Inc.","1 866 7993539","info@flexity.com","http://www.flexity.com","45 Vogell Rd 8th Floor","Richmond Hill","ON","L4B 3P6","CA","Citrix Solution Advisor - silver",
"Fortify Network Solutions Inc.","1 705 2914357","jacques.fortin@fortify.ca","www.fortify.ca","2 Queen St","Cookstown","ON","L0L 1L0","CA","Citrix Solution Advisor - silver",
"FSET","001 807 4683738","citrix@fset.ca","http://www.fset.ca","69 PO Box","Kenora","ON","P9N 3X1","CA","Citrix Solution Advisor - silver",
"Future 2000 Systems Inc.","1 905 54058844","bud.sukhu@future2000.net","www.future2000.net","15-6980 Maritz Dr.","Mississauga","ON","L5W 1Z3","CA","Citrix Solution Advisor - silver",
"Futurebound Corp.","647 830 7705","pstoev@futurebnd.com","http://futurebnd.com","2300 Yonge St 1600 - 2300 Yong","Toronto","ON","M4P 1E4","CA","Citrix Solution Advisor - silver",
"GAM Technical Services Inc","001 403 7680900","info@gamtech.ca","http://gamtech.ca","2835 19 St NE Suite 4A","Calgary","AB","T2E 7A2","CA","Citrix Solution Advisor - silver",
"GC Brieau Inc.","819 563 0694","mabrillant@gcbrieau.om","http://gcbrieau.com/","65 BelvÃ©dere Rue","Sherbrooke","QC","J1H 6E9","CA","Citrix Solution Advisor - silver",
"GenieAll","866 214 7863","info@genieall.com","http://www.genieall.com","2275 Lake Shore Blvd W Wsuite 507","Etobicoke","ON","M8V 3Y3","CA","Citrix Solution Advisor - silver",
"Goede & Associates Inc.","1 905 53322328","dgoede@goede.ca","http://www.goede.ca","1100 Burloak Dr","Burlington","ON","L2L 6B2","CA","Citrix Solution Advisor - silver",
"Goldpals Inc.","1 877 4653731","toronto@goldpals.com","http://www.goldpals.com","251 Queen St S Suite 233","Mississauga","ON","L5M 1L7","CA","Citrix Solution Advisor - silver",
"GoodWinWin.com Inc.","1 416 6177681","citrix@goodwinwin.com","http://www.goodwinwin.com","3583 Sheppard Ave E Suite 126","Toronto","ON","M1T 3K8","CA","Citrix Solution Advisor - silver",
"Graycon Group Ltd","1 403 5082255","purchasing@graycon.com","http://www.graycon.com","325 10th Ave SW","Calgary","AB","T2R 0A5","CA","Citrix Solution Advisor - silver",
"Groupe Nexio","001 514 8406757","patrick.bernard@nexio.com","http://www.nexio.com","2050 de Bleury Rue Suite 500","Montreal","QC","H3A 2J5","CA","Citrix Solution Advisor - silver",
"Groupe SDP","1 418 9904737","mberard@groupesdp.com","http://www.groupesdp.com","710 Bouvier Rue Suite 235","Quebec","QC","G2J 1C2","CA","Citrix Solution Advisor - silver",
"GT Global Services Inc.","800 977 5117","info@gtglobal.ca","http://www.gtglobal.ca","110 Cochrane Dr Bldg A","Markham","ON","L3R 9S1","CA","Citrix Solution Advisor - silver",
"Hanatech Inc.","1 902 8017922","sales@hanatechinc.com","http://www.hanatech.ca","592 Bedford Hwy Unit 2","Halifax","NS","B3M 2L8","CA","Citrix Solution Advisor - silver",
"HDS Inc.","1 416 6371969","sales@hds.ca","http://www.hds.ca","43 Royal Amber Cres","Mount Albert","ON","L0G 1M0","CA","Citrix Solution Advisor - silver",
"Hi-Tech Business Systems Ltd","1 780 05384128","darrelg@hitechgp.com","http://www.hitechgp.com","10115 100 Ave","Grande Prairie","AB","T8V 0V4","CA","Citrix Solution Advisor - silver",
"HLB System Solutions","1 519 98223450","lberglund@hlbsolutions.com","www.hlbsolutions.com","50 Malcolm Rd Suite 1","Guelph","ON","N1K 1A9","CA","Citrix Solution Advisor - silver",
"Horizon Computer Solutions Inc","306 3066655666","dcarruthers@horizon.ca","www.horizon.ca","360 1st Ave N","Saskatoon","SK","S7K 1X4","CA","Citrix Solution Advisor - silver,Citrix Service Provider",
"HyCloud Computing Inc.","905 339 1940","sales@hycloud.ca","http://www.hycloud.ca","2401 Royal Windsor Dr","Oakville","ON","L6J 7X6","CA","Citrix Solution Advisor - silver",
"Hyper Technologies, Inc","1 416 4730162","john.kadianos@hypert.com","http://www.hypert.com","14845-6 Yonge st suite 381","Aurora","ON","L4G 6H8","CA","Citrix Solution Advisor - silver,Citrix Service Provider",
"Hypertec","1 514 7454540","mmarracino@hypertec.ca","www.hypertec.ca","9300 Trans Canada Hwy","Ville-St-Laurent","QC","H4S 1K5","CA","Citrix Solution Advisor - silver",
"i-Virtualize International Inc.","001 647 3671446","info@i-virtualize.com","http://www.i-virtualize.com","44 Simpson Ave","Hannon","ON","L0R 1P0","CA","Citrix Solution Advisor - silver",
"I2RI Services","001 514 2667615","a.draidi@i2ri.com","http://www.i2ri.com","7501 Papineau Av Suite A","Montreal","QC","H2E 2G9","CA","Citrix Solution Advisor - silver",
"iAdvance IT","888 907 9005","info@iadvanceit.ca","http://iadvanceit.ca","6 Guinevere Crt","Richmond Hill","ON","L4C 0P7","CA","Citrix Solution Advisor - silver",
"ICC Technologies","450 6827200","citrix@icc.qc.ca","http://www.icc.qc.ca","4885 Aut 440 Laval Ouest","Laval","","H7P 5P9","CA","Citrix Solution Advisor - silver",
"ICT Network Systems Inc.","1 905 8988552","peter@ictnetworksystems.ca","http://www.ictnetworksystems.ca","110 Pony Dr Suite 10","Newmarket","ON","L3Y 7B6","CA","Citrix Solution Advisor - silver",
"Idealogical Systems Inc.","1 416 4105030","andrev@idealogical.com","www.idealogical.com","2900 John St Suite 400","Markham","ON","L3R 5G3","CA","Citrix Solution Advisor - silver,Citrix Service Provider",
"IDS Systems","1 613 8366708","sales@idssystems.com","http://www.idssystems.com","232 Herzberg Rd Suite 201","Kanata","ON","K2K 2A1","CA","Citrix Solution Advisor - silver",
"INDUSFLOW Systems","1 905 9400751","info@indusflow.com","http://www.indusflow.com","7481 Woodbine Ave Suite 203","Markham","ON","L3R 2W1","CA","Citrix Solution Advisor - silver",
"Infinitron Technologies Inc","778 9982333","jm@infinitron.com","http://www.infinitron.com","PO Box 2945 Station Main","Vancouver","BC","V6B 3X4","CA","Citrix Solution Advisor - silver",
"Informatique Medatek Inc","1 450 6820405","sales@commandare.com","http://www.commandare.com","5574 boul. des Rossignols","Laval","QC","H7L 5W6","CA","Citrix Solution Advisor - silver",
"Infrastructure & Beyond Inc.","1 403 8618930","tbrummet@shaw.ca","http://www.infrastructureandbeyond.ca","313 Midglen Terr SE","Calgary","AB","T2X 1R3","CA","Citrix Solution Advisor - silver",
"Infratech ICT Ltd","001 604 8552017","stephen.penner@outlook.com","http://www.infratech.ca","2326 Cascade St","Abbotsford","BC","V2T 3G3","CA","Citrix Solution Advisor - silver",
"Insign.it, Inc.","1 250 4699338","info@insignit.ca","http://www.insignit.ca","PO box 2760","Kelowna","BC","V1X 8B6","CA","Citrix Solution Advisor - silver",
"Insite Computer Group Inc.","1 905 3075150","sales@insite.ca","http://www.insite.ca","8920 Woodbine Ave Unit 104","Markham","ON","L3R 9W9","CA","Citrix Solution Advisor - silver,Citrix Service Provider",
"Integra Networks Corporation","1 613 5264945","jcolvey@integranetworks.com","www.integranetworks.com","1730 St. Laurent Blvd Suite 520","Ottawa","ON","K1G 5L1","CA","Citrix Solution Advisor - silver",
"Integris Inc.","001 613 2701382","info@integris-tech.com","http://integris-tech.com","750 Bayview Dr","Ottawa","ON","K0A 3M0","CA","Citrix Solution Advisor - silver",
"intelliNet","1 604 2735001","ajuma@intellinet-canada.com","www.intellinet-canada.com","21331 Gordon Way Suite 2155","Richmond","BC","V6W 1J9","CA","Citrix Solution Advisor - silver,Citrix Service Provider",
"Interdynamix Corp.","1 780 4237005","konstantin@interdynamix.com","www.interdynamix.com","10180 101 St NW Suite 620","Edmonton","AB","T5J 3S4","CA","Citrix Solution Advisor - silver",
"INTERFACE TECHOLOGIES","001 416 3639880","lloyd@interface.ca","http://interface.ca","90 Adelaide St W Suite 500","Toronto","ON","M5H 3V9","CA","Citrix Solution Advisor - silver",
"Interware Systems","1 416 3636161","efung@interwaresystems.com","http://www.interwaresystems.com","3100 Steeles Ave E., Suite 802","Markham","ON","L3R 8T3","CA","Citrix Solution Advisor - silver",
"ipss inc.","1 613 2322228","ljamme@ipss.ca","www.ipss.ca","150 Isabella St Suite 101","Ottawa","ON","K1S 1V7","CA","Citrix Solution Advisor - silver",
"IQBridge","1 613 8512374","sales@iqbridge.ca","http://www.iqbridge.ca","56 Rideau Heights Dr","Ottawa","ON","K2E 7A6","CA","Citrix Solution Advisor - silver",
"iRangers International","1 855 9964742","info@irangers.com","http://www.irangers.com","5 Donald St Suite 200","Winnipeg","MB","R3L 2T4","CA","Citrix Solution Advisor - silver",
"Island Key Computer Ltd.","1 250 3806465","sales@islandkey.com","http://www.islandkey.com","Suite 211 - 938 Howe Street","Vancouver","BC","V6Z 1N9","CA","Citrix Solution Advisor - silver",
"IT Blueprint Solutions Consulting Inc.","1 778 8087008","mgower@itblueprint.ca","http://www.itblueprint.ca","170 - 422 Richards Street","Vancouver","BC","V6B 2Z4","CA","Citrix Solution Advisor - silver",
"IT4ce Inc.","1 905 2069947","jdasilva@it4ce.com","http://www.IT4ce.com","1200 Aerowood Dr Unit 46","Mississauga","ON","L4W 2S7","CA","Citrix Solution Advisor - silver",
"ITEXPRESS DIRECT INC.","416 342 9717","sales@itexpress.ca","http://WWW.ITEXPRESS.CA","1500 Upper Middle Rd W Suite 310","Oakville","ON","L6M 0C2","CA","Citrix Solution Advisor - silver",
"ITIS Technology Ltd","001 403 6404250","sales@itis-technology.com","http://itis-technology.com","4750 106 Ave SE Unit 3","Calgary","AB","T2C 3G5","CA","Citrix Solution Advisor - silver",
"JennyKayla Consulting Ltd","001 780 966","jenny@jennykayla.com","http://jennykayla.com","104 NW St Suite 1003","Edmonton","AB","T5K 2G5","CA","Citrix Solution Advisor - silver",
"JFS Fleet Solutions Canada","01 905 2674638","solutions@fleet-assistant.ca","http://www.fleet-assistant.ca","208 Enfield Pl Suite 1502","Mississauga","ON","L5B 0G8","CA","Citrix Solution Advisor - silver",
"Jolera Inc","1 416 4101011","raniak@jolera.com","www.jolera.com","477 Mount Pleasant Rd Suite 400","Toronto","ON","M4S 2L9","CA","Citrix Solution Advisor - silver",
"Jump IT/Computer Systems Centre","905 361 8888","info@jumpit.ca","http://jumpit.ca","275 College Street","Toronto","ON","M5T 1S2","CA","Citrix Solution Advisor - silver",
"K2B Technologies Inc","1 514 7307830","kbra@k2binc.com","http://www.k2binc.com","1505 des Goelands","Sainte-Catherine","QC","J5C 1S1","CA","Citrix Solution Advisor - silver",
"KCG Inc","1 416 5671942","ik@kcg.ca","http://www.kcg.ca","32 Firestone Rd","Toronto","ON","M9C 4N3","CA","Citrix Solution Advisor - silver",
"Keal Technology Inc","1 905 7382112","jacques@keal.com","www.keal.com","55 Administration Rd Suite 21","Concord","ON","L4K 4G9","CA","Citrix Solution Advisor - silver",
"Kevin Lund Technology Solutions","001 204 7971504","kevin@klts.ca","http://www.klts.ca","110 James Ave Suite 202","Winnipeg","MB","R3B 0N7","CA","Citrix Solution Advisor - silver",
"Kilobytes Data Solutions Inc.","1 905 58567166","dmicieli@kbytes.com","www.kbytes.com","15-111 Zenway Blvd","Woodbridge","ON","L4H 3H9","CA","Citrix Solution Advisor - silver",
"KSP Technology","1 306 3524577","sales@ksp.ca","http://www.ksp.ca","2825 Saskatchewan Dr Suite 101","Regina","SK","S4T 1H3","CA","Citrix Solution Advisor - silver",
"Lakeside Computers","1 780 5949495","it@lakesidecomputers.ab.ca","http://lakesidecomputers.ab.ca","5204A 51st Ave","Cold Lake","AB","T9M 1P2","CA","Citrix Solution Advisor - silver",
"Lanetco Computer Networks Inc.","905 9056604118","jsmith@lanetco.ca","www.lanetco.ca","1200 Centre St Suite 100","Thornhill","ON","L4J 3M9","CA","Citrix Solution Advisor - silver",
"Layer 3 Solutions Inc.","1 416 2322552","info@layer3solutions.com","http://www.layer3solutions.com","150 Trowers Rd","Woodbridge","ON","L4L 5Z4","CA","Citrix Solution Advisor - silver",
"Le 9e Bit inc.","1 819 4744724","education@9bit.com","http://www.9bit.com","715 Cormier Rue","Drummondville","QC","J2C 6P7","CA","Citrix Solution Advisor - silver",
"Les Electroniques Inpro","1 819 5642482","ventes@inpro.qc.ca","http://www.inpro.qc.ca","786 King Est","Sherbrooke","QC","J1G 1C5","CA","Citrix Solution Advisor - silver",
"Les Solutions Victrix","1 514 8791919","jjulien@victrix.ca","www.victrix.ca","630 Sherbrooke Rue O Suite 1100","Montreal","QC","H3A 1E4","CA","Citrix Solution Advisor - silver",
"Libra Information Technologies","1 905 5427881","sales@librait.net","http://www.librait.net","6505 Mississauga Rd Suite G","Mississauga","ON","L5N 1A6","CA","Citrix Solution Advisor - silver",
"Live Technologies Inc","1 604 8977791","sales@liveinc.ca","http://www.liveinc.ca","7184 120th St Suite 469","Surrey","BC","V3W 0M6","CA","Citrix Solution Advisor - silver",
"Longhurst Consulting","1 403 3460673","stevel@telusplanet.net","http://www.longhurstconsulting.com","1 7439 49 Avenue Crescent","Red Deer","AB","T4P 1X6","CA","Citrix Solution Advisor - silver",
"Lowerys","001 807 3446666","info@lowerys.com","http://www.lowerys.com","540 Central Avenue","Thunder Bay","ON","P7B 6B4","CA","Citrix Solution Advisor - silver",
"Lunik Intelligence Technologique","1 819 5756043","info@lunikit.com","http://www.lunikit.com","4505 Bourque Boul Suite 121","Sherbrooke","QC","J1N 3B9","CA","Citrix Solution Advisor - silver",
"M R S Consulting","1 306 7611557","mrsconsulting@accesscomm.ca","http://www.mrsconsulting.ca","1138A Blanchfield St","Regina","SK","S4X -3E","CA","Citrix Solution Advisor - silver",
"Mainland Information Systems","1 403 2666611","insidesales@mainland.ca","www.mainland.ca","3639 26 St NE","Calgary","AB","T1Y 5E1","CA","Citrix Solution Advisor - silver",
"Maple ITES Inc","001 647 6280377","contact@mapleites.com","http://www.mapleites.com","1299 Matheson Blvd E","Mississauga","ON","L4W 1R1","CA","Citrix Solution Advisor - silver",
"MatrixIT","613 232 0648","customerservice@matrixit.net","http://matrixit.net","1743 St. Laurent Blvd","Ottawa","ON","K1G 3V4","CA","Citrix Solution Advisor - silver",
"MCJ CONSEIL INC","1 418 863","jflemieux@mcjconseil.com","http://www.mcjconseil.com","646 Lafontaine Box 216","Riviere-Du-Loup","QC","G5R 3Y8","CA","Citrix Solution Advisor - silver",
"Members IT Group","1 506 3721139","dean.colpitts@mitg.ca","WWW.MITG.CA","1 Sunrise Ave","Salisbury","NB","E4J 2S3","CA","Citrix Solution Advisor - silver",
"Messco Ontario Ltd., o/a Life-Alert ( Canada)","001 705 946","andmes@messco.net","http://www.messco.net","113 Salisbury Ave Suite 300","Sault Ste. Marie","ON","P6B 1M1","CA","Citrix Solution Advisor - silver",
"MICCA Solutions","001 647 9074555","micca.solutions@gmail.com","http://miccasol.com","25 Trailwood Dr Suite 2204","Mississauga","ON","L4Z 3K9","CA","Citrix Solution Advisor - silver",
"Mico Systems Inc","001 905 8422994","mike@micosystems.com","http://www.micosystems.com","740 Weller Crt Unit A","Oakville","ON","L6K 3S9","CA","Citrix Solution Advisor - silver",
"Micro Logic","1 418 6586624","pproulx@micrologic.ca","http://www.micrologic.ca/","2786, Chemin Sainte-Foy","Quebec","QC","G1V 1V8","CA","Citrix Solution Advisor - silver",
"Microage - Niagara","1 905 6412500","mike@microagets.com","http://www.microagets.com","188 Bunting Rd","St Catharines","ON","L2M 3Y1","CA","Citrix Solution Advisor - silver",
"MicroAge of St. John's","001 709 5761299","dereck.drodge@microagenl.ca","http://www.microage.ca","6 Duffy Place","St. John's","NL","A1B 4B8","CA","Citrix Solution Advisor - silver",
"MicroAge Saskatchewan","1 306 5250537","brad.hoffman@microagesask.com","www.microagesask.com","1060 Winnipeg St","Regina","SK","S4R 8P8","CA","Citrix Solution Advisor - silver",
"MicroAge Solutions Centre","1 780 7906666","pwalsh@microagesolutions.net","www.microagesolutions.net","310C Thickwood Blvd","Fort McMurray","AB","T9K 1Y1","CA","Citrix Solution Advisor - silver",
"MicroAge Technology Solutions","1 613 9666201","dhoard@microagebelleville.ca","http://www.microage.ca/belleville","345 College Street East","Belleville","ON","K8N 5B7","CA","Citrix Solution Advisor - silver",
"MicroAge Toronto","1 905 2648520","kprosser@tor.microage.ca","www.microage.ca","55 Director Crt","Woodbridge","ON","L4L 4S5","CA","Citrix Solution Advisor - silver",
"Microserve","1 800 6617783","sales@microserve.ca","http://www.microserve.ca","4295 Dawson St","Burnaby","BC","V5C 4B3","CA","Citrix Solution Advisor - silver",
"Microserve","1 800 6617783","sales@microserve.ca","http://www.microserve.ca","9657 45 Ave NW","Edmonton","AB","T6E 5Z8","CA","Citrix Solution Advisor - silver",
"Microtek","1 905 9488627","info@microtekinc.com","http://microtekinc.com","14 th Ave Suite 2750","Markham","ON","L3R -0B","CA","Citrix Solution Advisor - silver",
"MIDAC Inc.","001 416 6905575","sales@midac.ca","http://www.MIDAC.ca","4211 Yonge St Suite 215","Toronto","ON","M2P 2A9","CA","Citrix Solution Advisor - silver",
"Momentis Systems Inc.","001 514 9392306","mlafontaine@momentis.com","http://www.momentis.com","5500 Royalmount Av Suite 250","Mont-Royal","QC","H4P 1H7","CA","Citrix Solution Advisor - silver",
"Moore Consulting Services Inc","001 613 9864090","smoore@mooreconsultingservices.ca","http://mooreconsultingservices.ca","185 Coyote Cres","Ottawa","ON","K2S 2G8","CA","Citrix Solution Advisor - silver",
"My Blue Umbrella","011 416 2450709","sales@mbu.ca","http://www.mbu.ca","160 Cidermill Ave Unit 1","Concord","ON","L4K 4K5","CA","Citrix Solution Advisor - silver",
"MY IT PRO","1 780 972","tim.higdon@myitpro.ca","http://www.myitpro.ca","10 PO Box Comp 3","Fort McMurray","AB","T9H 5B4","CA","Citrix Solution Advisor - silver",
"MYRA Systems Corp","1 250 3811335","britt.hilton@myra.com","http://www.myra.com","488A Bay St","Victoria","BC","V8T 5H2","CA","Citrix Solution Advisor - silver",
"NCFRE Technologie Inc.","1 514 48314174","roger.gendron@ncfre-technologie.com","ncfre-technologie.com","3856 43E Av","Pointe-Aux-Trembles","QC","H1A 3B1","CA","Citrix Solution Advisor - silver",
"NCS Network","001 902 4825602","sales@ncsnetwork.net","http://ncsnetwork.net","100 Black Rock Rd","Clifton","NS","B6L 1B9","CA","Citrix Solution Advisor - silver",
"Netcetera Consulting Inc.","1 604 9802700","sales@netcetera.ca","http://www.netcetera.ca","828 Harbourside Dr Suite 205","North Vancouver","BC","V7P 3R9","CA","Citrix Solution Advisor - silver",
"NetKeepers Integric Solutions Group Inc.","1 905 19057704804","shaul.swartz@netkeepers.com","www.netkeepers.com","215 Shields Crt Suite 3","Markham","ON","L3R 8V2","CA","Citrix Solution Advisor - silver,Citrix Service Provider",
"Netlink Computer Inc. / NCIX","1 604 2888080","b2b@ncix.com","http://www.ncix.com","13720 Mayfield Place","Richmond","BC","V6V 2E4","CA","Citrix Solution Advisor - silver",
"NetPLUS Co","1 416 2920003","info@netpluscanada.com","http://netpluscanada.com","880 Ellesmere Rd Unit 106F","Scarborough","ON","M1P 2W6","CA","Citrix Solution Advisor - silver",
"Netsmart Inc.","001 780 4525811","purchasing@netsmart.ca","http://netsmart.ca","9922 111 St NW","Edmonton","AB","T5K 1K2","CA","Citrix Solution Advisor - silver",
"Netsolve Services","1 519 94576221","rob@netsolveinc.com","www.netsolveinc.com","801 Hamilton Rd","London","ON","N5Z 1V2","CA","Citrix Solution Advisor - silver",
"NetWise Inc.","1 780 9450163","sales@netwise.ca","http://www.netwise.ca","57164 PO Box","Sherwood Park","AB","T8A 5L7","CA","Citrix Solution Advisor - silver",
"NEW-LINK","1 604 4289993","tinny@tinny.ca","http://WWW.NEW-LINK.CA","4960 Bennett St Suite 205","Burnaby","BC","V5H 2G9","CA","Citrix Solution Advisor - silver",
"Next Digital Inc.","1 780 04246398","info@nextdigital.ca","www.nextdigital.ca","11817 105 Ave NW","Edmonton","AB","T5H 0L9","CA","Citrix Solution Advisor - silver",
"Next Dimension Inc.","1 519 99452032","dave@ndinc.ca","http://www.nextdimensioninc.com","3020 Devon Dr.","Windsor","ON","N8X4L2","CA","Citrix Solution Advisor - silver",
"Northern Computer Inc","1 250 7627753","jim.condon@northerncomputer.ca","http://www.northerncomputer.ca","495 Banks Rd","Kelowna","BC","V1X 6A2","CA","Citrix Solution Advisor - silver",
"Nova Networks Inc.","1 613 5636682","jleggitt@novanetworks.com","www.novanetworks.com","1700 Woodward Dr Suite 100","Ottawa","ON","K2C 3R8","CA","Citrix Solution Advisor - silver",
"Novacc Technology Inc.","905 4797970","sales@novacc.com","http://www.novacc.com","17075 Leslie St Unit 7","Newmarket","ON","L3Y 8E1","CA","Citrix Solution Advisor - silver",
"Novipro","514 7445353","marketing@novipro.com","http://www.novipro.com","2055 Peel Rue Ofc 701","Montreal","QC","H3A 1V4","CA","Citrix Solution Advisor - silver",
"Noxent Inc.","1 450 09260662","jjulien@noxent.com","www.noxent.com","6400 Taschereau Boul Suite 220","Brossard","QC","J4W 3J2","CA","Citrix Solution Advisor - silver",
"Nuvollo","1 647 3818511","sboyer@nuvollo.com","http://www.nuvollo.com","27 Fairmount Cres","Toronto","ON","M4L 2H3","CA","Citrix Solution Advisor - silver,Citrix Service Provider",
"NWD MicroAge","1 450 9736678","sergio.lima@nwd-microage.com","http://www.nwd-microage.com","4209 Autoroute des Laurentides est","Laval","QC","H7L 5W5","CA","Citrix Solution Advisor - silver",
"Ohri Corporation Inc","001 416 907","info@ohricorp.com","http://www.ohricorp.com","6399 Spinnaker Cir Suite 53","Mississauga","ON","L5W 1Z5","CA","Citrix Solution Advisor - silver",
"OnX Enterprise Solutions Ltd.","866 9064669","bill.kastner@onx.com","http://www.onx.com","155 Commerce Valley Drive East","Thornhill","ON","L3T 7T2","CA","Citrix Solution Advisor - silver",
"OPUS Consulting Group Ltd.","1 604 6846787","rbrown@opusconsulting.ca","http://www.opusconsulting.ca","134 Abott Street Suite 404","Vancouver","BC","V6B 2K4","CA","Citrix Solution Advisor - silver",
"OSI Network Solutions Inc","1 780 7017459","zaher@osins.ca","www.osins.ca","207 10470-176 St","Edmonton","AB","T5S 1L3","CA","Citrix Solution Advisor - silver",
"Osler Systems Management Inc.","250 6568181","mark.sudul@oslersystems.com","http://www.oslersystems.com","9544 Aurora Rd","North Saanich","BC","V8L 5V5","CA","Citrix Solution Advisor - silver",
"OT Group Managed Services","1 613 9666324","info@thinkot.ca","http://Thinkot.ca","175 Lahr Dr","Belleville","ON","K8N 5S2","CA","Citrix Solution Advisor - silver",
"Outsource Computronics","1 416 9254036","citrix@outsourcecomputronics.com","http://www.outsourcecomputronics.ca","3 Charles St W Suite 206","Toronto","ON","M4Y 1R4","CA","Citrix Solution Advisor - silver",
"Oxygen Technical Services Ltd.","1 204 42313237","brian@oxygentechnical.com","www.oxygentechnical.com","1661 Portage Ave Suite 209","Winnipeg","MB","R3J 3T7","CA","Citrix Solution Advisor - silver",
"Paladin Infosystems Inc.","613 277 5131","smiths@rogers.com","http://I.dont.have.one","277 Crichton St","Ottawa","ON","K1M 1W3","CA","Citrix Solution Advisor - silver",
"Panamby Inc.","1 416 9302154","benny.chong@panambyinc.com","http://www.panambyinc.com","610 Bullock Dr Suite 811","Markham","ON","L3R 0G1","CA","Citrix Solution Advisor - silver",
"Pancosmo Trade","1 647 929","info@pancosmotrade.com","http://www.pancosmotrade.com","442 Parkwood Dr","Port Elgin","ON","N0H 2C2","CA","Citrix Solution Advisor - silver",
"Paradigm Network Solutions","1 416 4909019","brad.mcmillan@ittoronto.com","www.ITtoronto.com","250 Consumers Rd Suite 412","Toronto","ON","M2J 4V6","CA","Citrix Solution Advisor - silver,Citrix Service Provider",
"Partner Solutions Inc","1 450 7789580","eric.girard@partnersolutions.ca","www.partnersolutions.ca","2450 Girouard Rue O","Saint-Hyacinthe","QC","J2S 3B3","CA","Citrix Solution Advisor - silver,Citrix Service Provider",
"PartnerIT Corporation","1 519 9634534","chris.boudreau@partnerit.ca","http://www.partnerit.ca","B-69 Wellington St","London","ON","N6B 2K4","CA","Citrix Solution Advisor - silver",
"Pathix ASP","1 709 7248500","kcritch@pathix.com","www.pathix.com","9 Austin St","St. John's","NL","A1B 4C1","CA","Citrix Solution Advisor - silver",
"PC Corp","1 780 4283000","servicedesk@pccorp.com","http://www.pccorp.com","9947 109TH St NW","Edmonton","AB","T5K 1H6","CA","Citrix Solution Advisor - silver",
"Pc-Expert","001 819 8491010","tech@pc-expert.ca","http://www.pc-expert.ca","45 Wellington Rue","Coaticook","QC","J1A 2H6","CA","Citrix Solution Advisor - silver",
"Peak Performance I.T.","001 780 3807252","geoff.parsons@peaktechnology.ca","http://www.peaktechnology.ca","7410B 112 St","Grande Prairie","AB","T8W 0C6","CA","Citrix Solution Advisor - silver",
"Perron Technologies","450 3276249","info@ptech.qc.ca","http://www.ptech.qc.ca","1055 Royale Rue","St-Jerome","QC","J5L 0B7","CA","Citrix Solution Advisor - silver",
"Pinnacl Networks Inc","1 709 7477468","info@pinnaclenetworks.ca","http://www.pinnaclenetworks.ca","1200 Kenmount Rd","Paradise","NL","A1L 1N3","CA","Citrix Solution Advisor - silver",
"Polarcom","1 867 6682546","gangel@polarcom.com","www.polarcom.com","208 Strickland St","Whitehorse","YT","Y1A 2J8","CA","Citrix Solution Advisor - silver",
"Powerland Computers Ltd.","204 237 3800","dneufeld@powerlandcomputers.com","http://www.powerlandcomputers.com","170 Marion St","Winnipeg","MB","R2H 0T4","CA","Citrix Solution Advisor - silver",
"ProServeIT Coporation","1 416 3639320","esugar@proserveit.com","http://www.proserveit.com","104-6700 Century Avenue","Mississauga","ON","L5N 6A4","CA","Citrix Solution Advisor - silver",
"Protek Corporation dba Protek Systems","1 519 6521942","beth.walpole@tucmanaged.com","http://www.tucmanaged.com","4151 Perkins Rd","London","ON","N6L 1G8","CA","Citrix Solution Advisor - silver",
"Protocol Technologies Inc.","1 250 5451866","admin@protocol-tech.com","http://www.protocol-tech.com","1325 Polson Dr Suite 101","Vernon","BC","V1T 8H2","CA","Citrix Solution Advisor - silver",
"Proxi Telecom","1 514 42677694","lppapillon@proxitelecom.com","www.proxitelecom.com","3856A Taschereau Boul","Greenfield Park","QC","J4V 2H9","CA","Citrix Solution Advisor - silver",
"Pure Information Technology Inc.","403 4441800","sales@pureit.ca","http://www.pureit.ca","2710 17 Ave SE Suite 520","Calgary","AB","T2A 0P6","CA","Citrix Solution Advisor - silver",
"Re3 Distribution Inc","514 9322020","re3@bellnet.ca","http://www.re3distribution.com","4392 de Maisonneuve Boul O","Westmount","QC","H3Z 1L5","CA","Citrix Solution Advisor - silver",
"Rock Solid Computer Services","1 705 2224357","orders@rocksolidhq.com","http://www.rocksolidhq.com","2132 Algonquin Rd","Sudbury","ON","P3E 4Z6","CA","Citrix Solution Advisor - silver",
"Roxville Technology Inc.","416 4871340","citrix@roxville.com","http://www.roxville.com","586 Eglinton Ave E Suite 201","Toronto","ON","M4P 1P2","CA","Citrix Solution Advisor - silver",
"rSolutions","1 306 2051121","sales@rsolutions.com","http://rsolutions.com","415 Maxwell Cres","Regina","SK","S4N 5X9","CA","Citrix Solution Advisor - silver",
"S3 Technologies","001 514 2846262","citrix@s3tech.ca","http://www.s3tech.ca","3445 du Parc Av Suite 201","Montreal","QC","H2X 2H6","CA","Citrix Solution Advisor - silver,Citrix Service Provider",
"Sage Infrastructure Solutions Group","1 403 4011464","cmerritt@sageisg.com","http://sageisg.com","107 Tuscarora Mews NW","Calgary","AB","T3L 2H4","CA","Citrix Solution Advisor - silver",
"Scalar Decisions Inc","416 202 0020","sales@scalar.ca","http://www.scalar.ca","280 King St E Flr 4","Toronto","ON","M5A 1K7","CA","Citrix Solution Advisor - silver",
"Scaleable I.T. Solutions Inc.","1 780 5771400","jaime@scaleableit.com","http://www.scaleableit.com","11924 21 Ave SW","Edmonton","AB","T6W 0C9","CA","Citrix Solution Advisor - silver",
"Sea to Sky Network Solutions","1 604 6286970","info@seatosky.com","http://www.seatosky.com","541 Howe St Suite 200","Vancouver","BC","V6C 2C2","CA","Citrix Solution Advisor - silver,Citrix Service Provider",
"SecureIP Solutions Inc.","1 514 5145732932","info@secureip.ca","http://www.secureip.ca","1595 Lauzon Rue","Mascouche","QC","J7L 2R5","CA","Citrix Solution Advisor - silver",
"Services Informatiques Keven Vachon Inc.","418 2217757","vkeven@sikv.net","http://www.sikv.net","15022 Lacroix Boul","Saint-Georges","QC","G5Y 1R7","CA","Citrix Solution Advisor - silver",
"Services Informatiques SL","418 2227812","info@infosl.net","http://www.infosl.net","15980, Boulevard Lacroix","Saint-Georges","QC","G5Y 1S4","CA","Citrix Solution Advisor - silver,Citrix Service Provider",
"Setanta Solutions Inc.","1 613 2303923","askus@setantasolutions.com","http://www.setantasolutions.com","1342 Revell Drice","Manotick","ON","K4M 1K8","CA","Citrix Solution Advisor - silver",
"Skyrider Consulting","1 416 670","sales@skyriderconsulting.com","http://skyriderconsulting.com","7140 Tranmere Dr Unit B","Mississauga","ON","L5S 1L9","CA","Citrix Solution Advisor - silver",
"SM Technologies Inc.","415 948 9851","spantula@smtechnologiesca.com","http://smtechnologiesca.com","Babcombe Dr Suite 77 77","Thornhill","ON","L3T 1M9","CA","Citrix Solution Advisor - silver",
"Smartech Consulting Inc","905 5137373","ptarlattini@smartech.ca","http://www.smartech.ca","3950 14th Ave Suite 406","Markham","ON","L3R 0A9","CA","Citrix Solution Advisor - silver",
"SmartLayer Business Solutions","1 403 8000785","info@smartlayer.ca","http://www.smartlayer.ca","5 Richard Way SW Suite 300","Calgary","AB","T3E 7M8","CA","Citrix Solution Advisor - silver",
"Solutions PCD Inc.","001 514 7441322","ccarreira@pcdsolutions.com","http://pcdsolutions.com","5929 Transcanadienne Rte Suite 150","Saint-Laurent","QC","H4T 1Z6","CA","Citrix Solution Advisor - silver",
"Solutions144 Inc","416 707 6963","sebastian@s144.ca","http://www.s144.ca","436 Zuest Cres","Milton","ON","L9T 8E7","CA","Citrix Solution Advisor - silver",
"Source 44 Consulting Incorporated","1 905 2374576","info@source44.net","http://www.source44.net","2E-399 Applewood Crescent","Vaughan","ON","L4K 4J3","CA","Citrix Solution Advisor - silver",
"Staples Advantage","001 905 6964487","jonathan.tordesillas@staples.com","http://www.eway.ca","550 Pendant Dr","Mississauga","ON","L5T 2W6","CA","Citrix Solution Advisor - silver",
"Steeves and Associates","1 604 2987700","dave.steeves@steeves.net","www.steeves.net","4170 Still Creek Dr Suite 200","Burnaby","BC","V5C 6C6","CA","Citrix Solution Advisor - silver",
"Stratejm Inc.","1 416 4565183","info@stratejm.com","http://www.stratejm.com","1471 Gregwood Rd","Mississauga","ON","L5H 2T5","CA","Citrix Solution Advisor - silver,Citrix Service Provider",
"Sudden Service Technologies","1 604 8733910","ktsoi@sudden.ca","http://www.sudden.ca","7635 North Fraser Way Suite 103","Burnaby","BC","V5J 0B8","CA","Citrix Solution Advisor - silver",
"Summit BIM","1 604 5688325","raj@summitbim.com","http://www.summitbim.com","280 1820 Fir St","Vancouver","BC","V6J 3B1","CA","Citrix Solution Advisor - silver",
"Sunpark Consulting Group Inc.","1 226 9894222","info@networkpartners.ca","http://www.networkpartners.ca","511 Wood Nettle Way","Waterloo","ON","N2V 2X9","CA","Citrix Solution Advisor - silver",
"SUPRA ITS","001 905 593","psingh@supraits.com","http://www.supraits.com/company.html","5855 Kennedy Road","Mississauga","ON","L4Z2G3","CA","Citrix Solution Advisor - silver",
"Sure Systems Ltd","1 403 35399688","alex.mcgillivray@suresystems.ca","http://www.suresystems.ca","201 7003 5 Street S.E.","Calgary","AB","T2H2G2","CA","Citrix Solution Advisor - silver",
"Surge Systems & Services","011 647 2478225","info@surgeindia.com","http://surgesystems.ca","15 Rotunda St","Brampton","ON","L6X 5C9","CA","Citrix Solution Advisor - silver",
"SVI Virtual Solutions","250 415 2952","trevor.svienson@svi-virtualsolutions.com","http://svi-virtualsolutions.com/blog/","7751 Saanich Rd E Suite 4","Saanichton","BC","V8M 1Y7","CA","Citrix Solution Advisor - silver",
"Syncronet","604 6648901","fbutler@syncronet.net","www.syncronet.net","1682 7th Ave W Suite 200","Vancouver","BC","V6J 4S6","CA","Citrix Solution Advisor - silver",
"Syntax Systems Limited","1 514 47337777","ketinson@syntax.net","www.syntax.net","8250 Decarie Boul Suite 400","Montreal","QC","H4P 2P5","CA","Citrix Solution Advisor - silver",
"SysGen Solutions Group","403 2660994","iana@sysgen.ca","http://sysgen.ca","8 St Swsuite Suite 1300","Calgary","AB","T2R 1B2","CA","Citrix Solution Advisor - silver,Citrix Service Provider",
"Systemes ACCI","1 418 8714540","bgrenier@sysacci.com","http://www.sysacci.com","1995, rue Frank-Carrel Suite 203","Quebec","QC","G1N 4H9","CA","Citrix Solution Advisor - silver",
"T3 Solution Providers Inc.","1 403 9305000","kurt@t3sp.com","http://t3sp.com","350 7th Ave SW Suite 2800","Calgary","AB","T2P 3N9","CA","Citrix Solution Advisor - silver",
"Tandu Technologies Inc.","1 416 8225513","info@tandutech.com","http://tandutech.com","95 Durie St","Toronto","ON","M6S 3E7","CA","Citrix Solution Advisor - silver",
"TeamTech Management","647 534 2587","mor@teamtech.ca","http://teamtech.ca","36 King St E","Toronto","ON","M5C 1E5","CA","Citrix Solution Advisor - silver",
"Technoficient Inc.","416 628 6877","shong@technoficient.ca","http://www.technoficient.ca","145 Rouge Bank Dr","Markham","ON","L3S 4K5","CA","Citrix Solution Advisor - silver",
"Technology In Action","613 656 2172","info@vantageit.ca","http://www.vantageit.ca","1485 Laperriere Ave","Ottawa","ON","K1Z 7S8","CA","Citrix Solution Advisor - silver",
"tegnar.com","1 855 8346271","support@tegnar.com","http://www.tegnar.com","3484 des Sources Boul Suite 434","Dollard-Des-Ormeaux","QC","H9B 1Z9","CA","Citrix Solution Advisor - silver",
"Teknicor","416 4169072828","alan_fullerton@teknicor.com","www.teknicor.com","27 Roytec Rd","Vaughan","ON","L4L 8E3","CA","Citrix Solution Advisor - silver,Citrix Service Provider",
"Tektonic Inc.","001 416 2569928","info@tek-help.com","http://www.tek-help.com","390 Edgeley Blvd Unit 19","Vaughan","ON","L4K 3Z6","CA","Citrix Solution Advisor - silver",
"telebec, Northerntel","819 8197977687","jamieson.pouw@bellaliant.ca","www.telebec.com, www.northernt","10 Doyon Rue","Rouyn-Noranda","QC","J9X 7B4","CA","Citrix Solution Advisor - silver",
"Telecom Computer","1 905 3339621","jim.naysmith@telecomcomputer.com","http://telecomcomputer.com","5245 Harvester Rd","Burlington","ON","L7L 5L4","CA","Citrix Solution Advisor - silver",
"TELUS Communic. (BC) Inc.","1 250 3833922","procurment@telus.com","www.syscom-consulting.com","PO Box 7575","Vancouver","BC","V6B 8N9","CA","Citrix Solution Advisor - silver",
"Tenet Computer Group, Inc.","1 416 6653069","solutions@tenet.com","http://www.tenet.com","2820 Fourteenth Avenue Suite 101","Markham","ON","L3R 0S9","CA","Citrix Solution Advisor - silver",
"TeraMach Technologies Inc","1 613 2267775","tbloomfield@teramach.com","teramach.com","1130 Morrison Dr Suite 105","Ottawa","ON","K2H 9N6","CA","Citrix Solution Advisor - silver",
"The Good Guys Group Ltd.","1 403 7199166","info@thegoodguysgroup.ca","http://www.thegoodguysgroup.ca","5720 MacLeod Trail SW Suite 100","Calgary","AB","T2H 0J6","CA","Citrix Solution Advisor - silver",
"The Herjavec Group","001 416 4881272","rkelly@herjavecgroup.com","http://www.herjavecgroup.com","180 Duncan Mill Road 7th Floor","Toronto","ON","M3B 1Z6","CA","Citrix Solution Advisor - silver",
"TheITeam Ltd","1 403 2377750","jwagner@theiteam.ca","http://www.theiteam.ca","1210 8 St SW Suite 200","Calgary","AB","T2R 1L3","CA","Citrix Solution Advisor - silver,Citrix Service Provider",
"THINQ Technologies","1 519 96594600","bking@directdial.com","directdial.com","572 Wellington St","London","ON","N6A 3R3","CA","Citrix Solution Advisor - silver",
"Tigre Computer Services","001 403 8047316","donh@tigre-computers.com","http://www.tigre-computers.com","50 Citadel Gdns NW","Calgary","AB","T3G 3X5","CA","Citrix Solution Advisor - silver",
"Titus Technologies","778 919 8564","frida.saltiel@titustechnologies.ca","http://titustechnologies.ca","1111 Pacific St Suite 303","Vancouver","BC","V6E 3X7","CA","Citrix Solution Advisor - silver",
"TLC Solutions","1 604 3714852","info@tlcsolutions.ca","http://www.tlcsolutions.ca","19140 28th Ave Suite 108","Surrey","BC","V3Z 6M3","CA","Citrix Solution Advisor - silver",
"TLD Computers Inc","1 604 42726000","solutions@tld.com","www.tld.com","12251 Horseshoe Way Suite 100","Richmond","BC","V7A 4V4","CA","Citrix Solution Advisor - silver",
"Today's Technology Marketing Group","1 306 66647111","ttmg@ttmg.com","www.ttmg.com","18 Wayne Hicks Lane","Saskatoon","SK","S7L 6S2","CA","Citrix Solution Advisor - silver",
"Totaltek Solution Inc","905 820 5200","kbell@totaltek.ca","http://www.totaltek.ca","3176 Ridgeway Dr Suite 51","Mississauga","ON","L5L 5S6","CA","Citrix Solution Advisor - silver",
"Triella","647 426 1004","cbennett@triella.com","http://www.triella.com","18 King St E Suite 303","Toronto","ON","M5C 1C4","CA","Citrix Solution Advisor - silver,Citrix Service Provider",
"TrilliumPC Network Solutions Inc.","604 639 2988","dm@trilliumpc.com","http://TrilliumPC.com","3614 1st Ave E","Vancouver","BC","V5M 1C3","CA","Citrix Solution Advisor - silver",
"Triple 7 Technologies Inc.","905 8427177","triple7@on.aibn.com","http://Triple7Technologies.com","134 PO Box","Campbellville","ON","L0P 1B0","CA","Citrix Solution Advisor - silver",
"Triware Technologies","1 709 5795000","woneill@triware.ca","http://www.triware.ca","76 Brookfield Rd","St. John's","NL","A1E 3T9","CA","Citrix Solution Advisor - silver",
"TUC Managed IT Solutions","1 613 2288096","kristina.graham@tucmanaged.com","http://www.tucmanaged.com","1 Hines Road, Suite 301","Ottawa","ON","K2K3C7","CA","Citrix Solution Advisor - silver",
"Unilogik Systems Inc","1 604 7398488","vkumar@unilogik.com","http://www.unilogik.com","999 West Broadway Suite 620","Vancouver","BC","V5Z 1K5","CA","Citrix Solution Advisor - silver",
"USER FRIENDLY SYSTEMS INC.","1 905 3323343","yogi@ufs-inc.com","WWW.UFS-INC.COM","3070 Mainway Suite 2","Burlington","ON","L7M 3X1","CA","Citrix Solution Advisor - silver",
"Venture Computers of Canada","416 299 9877","sales@venture.ca","http://www.venture.ca","705 Middlefield Rd Unit 108","Scarborough","ON","M1V 5H5","CA","Citrix Solution Advisor - silver,Citrix Service Provider",
"Vertex Solutions Corporation","416 4166283721","tsanders@vertexcorp.ca","www.vertexcorp.ca","53 Woodstream Blvd Unit 2","Vaughan","ON","L4L 7Y8","CA","Citrix Solution Advisor - silver",
"Virtual Evangelists Technology Inc.","416 8976477","vinodpant@yahoo.com","http://www.linkedin.com/profil","5441 Sheldon Park Drive","Burlington","ON","L7L5X3","CA","Citrix Solution Advisor - silver",
"Virtuel TI Inc","001 418 3532838","info@virtuelti.ca","http://www.virtuelti.ca","8630 rue Jack-Kerouac","QuÃ©bec","QC","G2K 0A6","CA","Citrix Solution Advisor - silver",
"Vivek IT Consultants Inc","001 416 5644334","info@vivekit.com","http://vivekit.com","5718 Riverdale Cres","Mississauga","ON","L5M 4R4","CA","Citrix Solution Advisor - silver",
"W2 Technology Group Inc.","1 780 4069284","swalker@w2tg.com","www.w2tg.com","9939 89 Ave NW","Edmonton","AB","T6E 2S6","CA","Citrix Solution Advisor - silver",
"WBM Office Systems","1 306 6642686","bhardy@wbm.ca","http://www.wbm.ca","103 - 3718 Kinnear Place","Saskatoon","SK","S7P 0A6","CA","Citrix Solution Advisor - silver",
"WebLAN Systems","1 403 2398833","zingee@weblan.ca","http://www.weblan.ca","200 Country Hills Landng NW Suite 105","Calgary","AB","T3K 5P3","CA","Citrix Solution Advisor - silver",
"WW Works Inc.","1 905 3325844","wade.weppler@wwworks.com","http://www.wwworks.com","5353 North Service Road Suite 200","Burlington","ON","L7L 5H7","CA","Citrix Solution Advisor - silver,Citrix Service Provider",
"XBase Technologies Corporation","1 416 3401020","stuart.demeter@xbase.com","http://www.xbase.com","903 - 2225 Sheppard Avenue East","Toronto","ON","M2J 5C2","CA","Citrix Solution Advisor - silver,Citrix Service Provider",
"XCEL Professional Services Ltd.","001 403 9808032","sales@xpsl.ca","http://www.xpsl.ca","840 6 Ave SW Suite 240","Calgary","AB","T2P 3E5","CA","Citrix Solution Advisor - silver",
"Xenium IT Corporation","001 519 6699994","support@xenium.ca","http://www.xenium.ca","16 Arthur St S","Elmira","ON","N3B 2M5","CA","Citrix Solution Advisor - silver",
"Xyfon Solutions Inc.","604 568 1221","info@xyfon.com","http://xyfon.com/","Suite 1030 - 200 Granville St","Vancouver","BC","V6C 1S4","CA","Citrix Solution Advisor - silver",
"Xylotek Solutions Inc.","1 519 5842089","partners@xylotek.ca","www.xylotek.ca","600 Jamieson Pky Suite 3","Cambridge","ON","N3C 0A6","CA","Citrix Solution Advisor - silver,Citrix Service Provider",
"Yardstick Technologies Inc","1 780 07011839","kelly@yst1.com","www.yardsticktechnologies.com","4936 87 St NW Suite 300","Edmonton","AB","T6E 5W3","CA","Citrix Solution Advisor - silver",
"Zone cooperative ULaval","418 6562600","carl.filteau@zone.coop","http://www.zone.coop","2305 de L'Universite Rue Suite 112","Quebec","QC","G1V 0B4","CA","Citrix Solution Advisor - silver",
"1529966 Ab Ltd O/A HostedinCanada.com","001 403 7302040","info@hostedincanada.com","http://www.hostedincanada.com","1816 Crowchild Trail NW Suite 700","Calgary","AB","T2M 3Y7","CA","Citrix Service Provider",
"4GoodHosting.com","1 604 8009205","sales@4goodhosting.com","http://4goodhosting.com","999 Canada Pl Suite 404","Vancouver","BC","V6C 3E2","CA","Citrix Service Provider",
"ACCEO Solutions Inc","1 514 15142887161","thierry.bonte@acceo.com","http://www.acceo.com","75 Queen Rue Suite 6100","Montreal","QC","H3C 2N6","CA","Citrix Service Provider",
"Animate Inc.","416 535 2516","info@animate.com","http://www.animate.com","133 Richmond St W Suite 600","Toronto","ON","M5H 2L3","CA","Citrix Service Provider",
"Arelia","1 403 3331275","mark.hodges@arelia.ca","www.arelia.ca","11539 Douglas Woods Rise SE","Calgary","AB","T2Z 2A1","CA","Citrix Service Provider",
"Capris Group","905 507 8151","sales@capris.com","http://caprishosting.com","215 Traders Blvd E Unit 11","Mississauga","ON","L4Z 3K5","CA","Citrix Service Provider",
"CLOUD DYNAMICS INC","001 416 7597555","info@clouddynamicsinc.com","http://www.clouddynamicsinc.com","18 Wynford Dr Suite 307","Toronto","ON","M3C 3S2","CA","Citrix Service Provider",
"Corporate Networks","780 790 1564","zeshan.butt@corpnet.ca","http://www.corpnet.ca","8313 Fraser Ave","Fort McMurray","AB","T9H 1W9","CA","Citrix Service Provider",
"CtxUniverse","001 514 7030209","info@ctxuniverse.com","http://ctxuniverse.com","176 Den Haag Dr","Ottawa","ON","K1K 2V7","CA","Citrix Service Provider",
"Discovernet","1 905 58148383","shuelin@discovernet.ca","www.discovernet.ca","3968 Oland Dr","Mississauga","ON","L5M 6L7","CA","Citrix Service Provider",
"DS Managed Solutions","416 800 6061","mike.domingos@netrackservers.com","http://www.netrackservers.com","25 Adelaide St E Suite 720","Toronto","ON","M5C 3A1","CA","Citrix Service Provider",
"Etelligent Solutions Inc.","1 780 4523033","tschwenneker@esicanada.com","http://www.esicanada.com","11820 121 St NW","Edmonton","AB","T5L 5H5","CA","Citrix Service Provider",
"Follow Me IT","416 825 4212","sales@followmeit.com","http://www.followmeit.com","1172 Lansdown Dr","Oakville","ON","L6J 7N6","CA","Citrix Service Provider",
"Fort Technology Inc.","1 780 6694500","sales@forttechnology.ca","http://www.forttechnology.ca","#140, 8818 - 111 St","Fort Saskatchewan","AB","T8L 3T4","CA","Citrix Service Provider",
"Haxxess Enterprise Corporation","1 705 9884566","info@haxxess.com","http://www.haxxess.com","199 Loachs Rd Unit 106B","Sudbury","ON","P3E 2P7","CA","Citrix Service Provider",
"Hosted SFY","1 250 8703534","martin@hostedsfy.com","www.hostedsfy.com","1429 Blueridge Rd","Kelowna","BC","V1W 3A7","CA","Citrix Service Provider",
"i-worx","1 604 6396300","andre@i-worx.ca","http://www.i-worx.ca","#201 - 255 West 1st Street","North Vancouver","BC","V7M 3G8","CA","Citrix Service Provider",
"Infinity Network Solutions Inc","416 235 0931","byakobi@essentialdata.ca","http://essentialdata.ca","1340 Wilson Ave","Toronto","ON","M3M 1H8","CA","Citrix Service Provider",
"Interscale Inc","1 855 8881887","sales@interscale.com","http://www.interscale.com","10060 Jasper Ave NW","Edmonton","AB","T5J 3R8","CA","Citrix Service Provider",
"Net2Net IT Solutions","416 4168008917","bpavlidis@net2net-it.com","www.net2net-it.com","2359 Royal Windsor Dr Unit 27","Mississauga","ON","L5J 4S9","CA","Citrix Service Provider",
"NetFusion Designs","1 647 4765259","geeshan@netfusiondesigns.net","http://netfusiondesigns.net","50 Willow Park Dr","Brampton","ON","L6R 2N4","CA","Citrix Service Provider",
"Next Hop Solutions Inc","001 604 4845141","thall@nexthop.ca","http://www.nexthop.ca","34970 Mt Blanchard Dr","Abbotsford","BC","V2S 6T5","CA","Citrix Service Provider",
"Nirix Technology","1 780 4141556","steven.hsu@nirix.com","http://www.nirix.com","18203 114 Ave NW","Edmonton","AB","T5S 2P6","CA","Citrix Service Provider",
"Nucleus Networks","1 604 6823444","sales@nucleusnetworks.ca","http://www.nucleusnetworks.ca","375 Water St Suite 375","Vancouver","BC","V6B 5C6","CA","Citrix Service Provider",
"Orion Software","514 484 9661","info@orion-soft.com","http://www.orion-soft.com","6000 Cote-Des-Neiges Ch Suite 240","Montreal","QC","H3S 1Z8","CA","Citrix Service Provider",
"Oriso Solutions","1 450 4441544","rpapin@igovirtual.com","http://www.oriso.com","100-3580 Isabelle Rue","Brossard","QC","J4Y 2R3","CA","Citrix Service Provider",
"Precicom Technologies","418 334 2525","info@precicom.com","http://www.precicom.com","131 Notre-Dame Rue O Bureau 10","Thetford Mines","QC","G6G 1J4","CA","Citrix Service Provider",
"Quartet Service Inc","001 416 4838332","helpme@quartetservice.com","http://www.quartetservice.com","1867 Yonge St Suite 600","Toronto","ON","M4S 1Y5","CA","Citrix Service Provider",
"Rebel Networks","416 4169073892","domenic@rebelnetworks.com","www.rebelnetworks.com","251 Queen St S","Mississauga","ON","L5M 1L7","CA","Citrix Service Provider",
"Rogers Communications","800 850 4217","salesleadsgta@rci.rogers.com","http://www.rogers.com","333 Bloor St E","Toronto","ON","M4W 1G9","CA","Citrix Service Provider",
"Simpliciti","1 514 3606066","gvesnaver@simpliciti.ca","http://www.simpliciti.ca","22 de Domremy Rue","Lorraine","QC","J6Z 2Y8","CA","Citrix Service Provider",
"Strategic IT & Business Solutions","647 930 1649","info@strategicibs.com","http://www.strategicibs.com","150 Skyway Ave","Toronto","ON","M9W 4Y9","CA","Citrix Service Provider",
"Structured IT Solutions Inc","416 848 3344","inquiries@sisc.com","http://www.structurdit.ca","7 Labatt Ave Suite 203C","Toronto","ON","M5A 1Z1","CA","Citrix Service Provider",
"TELUS","1 604 4322151","daniel.anzarut@telus.com","http://telus.com","25 York St","Toronto","ON","M5J 2V5","CA","Citrix Service Provider",
"Think On Inc.","1 647 4789266","requests@thinkon.com","http://www.thinkon.com","47 Front St E Suite 400","Toronto","ON","M5E 1B3","CA","Citrix Service Provider",
"VCIT Consulting","1 604 2887325","alan@vcit.ca","http://www.vcit.ca","#120 - 100 Klahanie Drive","Port Moody","BC","V3H 5K3","CA","Citrix Service Provider",
"Virtual Revolution Inc","1 613 8044097","jdavey@virtualrevolution.ca","http://virtualrevolution.ca","1310 Lakewood Dr","Sudbury","ON","P3E 6H9","CA","Citrix Service Provider",
"Welcome Networks Inc.","001 604 5151700","nick@welcomenetworks.com","http://www.welcomenetworks.com","7893 Edmonds St Suite 205","Burnaby","BC","V3N 1B9","CA","Citrix Service Provider",
"Your IT Inc","416 4164926789","ryan@youritinc.com","www.youritinc.com","107 Dalt Hicks Way","Markham","ON","L6C 1R6","CA","Citrix Service Provider",
"Ingram Micro","1 905 7555000","","Ingrammicro.ca","55 Standish Crt","Mississauga","ON","L5R 4A1","CA","Distributor",
"Dell Canada Inc.","416 7582219","chris_james@dell.com","http://www.dell.ca","501-155 Gordon Baker Rd","North York","ON","M2H 3N5","CA","Large Account Reseller",
"Insight Canada","514 3443500","","www.insight.ca","5410 Decarie Blvd","Montreal","QC","H3X 4B2","CA","Large Account Reseller",
